STARLINK-36093          
1 67015U 25293N   25353.75001156 -.01093036  36247-3 -30112-2 0  9991
2 67015  69.9941 303.4082 0003943 263.2601 346.0346 15.93728826  1309
STARLINK-36120          
1 67016U 25293P   25353.75001156 -.01089259  35994-3 -30103-2 0  9992
2 67016  69.9942 303.4112 0003904 263.3673 343.5143 15.93668256  1309
STARLINK-35498          
1 67017U 25293Q   25353.75001156 -.01099098  36641-3 -30186-2 0  9996
2 67017  69.9937 303.4055 0003957 264.6067 346.9310 15.93787989  1431
STARLINK-36106          
1 67018U 25293R   25353.75001156 -.01110491  37370-3 -30399-2 0  9994
2 67018  69.9937 303.4025 0003981 265.7370 348.0616 15.93851853  1350
STARLINK-35688          
1 67019U 25293S   25353.75001156 -.01100516  36769-3 -30054-2 0  9991
2 67019  69.9936 303.3999 0003858 263.0397 352.8722 15.93896080  1433
STARLINK-36172          
1 67020U 25293T   25353.75001156 -.01116838  37812-3 -30381-2 0  9990
2 67020  69.9935 303.3969 0003925 266.5867 352.0131 15.93972262  1350
STARLINK-36184          
1 67021U 25293U   25353.75001156 -.01129533  38634-3 -30623-2 0  9999
2 67021  69.9937 303.3936 0003947 263.3451 357.7041 15.94037607  1353
STARLINK-36209          
1 67022U 25293V   25353.75001156 -.01160433  40641-3 -31332-2 0  9993
2 67022  69.9935 303.3904 0003915 264.6044 359.3235 15.94120157  1350
STARLINK-36191          
1 67023U 25293W   25353.75001156 -.01186063  42342-3 -31915-2 0  9998
2 67023  69.9935 303.3871 0003979 266.2103   0.0646 15.94188028  1300
STARLINK-36192          
1 67024U 25293X   25353.58336806 -.01258271  47461-3 -32994-2 0  9999
2 67024  69.9936 303.8699 0003999 270.1030 122.5851 15.94686034  1331
STARLINK-36178          
1 67025U 25293Y   25353.75001156 -.01242105  46169-3 -33203-2 0  9993
2 67025  69.9936 303.3815 0003991 264.5286   6.5748 15.94321514  1356
STARLINK-36176          
1 67026U 25293Z   25353.75001156 -.01284152  49155-3 -34117-2 0  9995
2 67026  69.9932 303.3759 0004005 265.4801  10.4062 15.94443465  1353
