CCSDS_OMM_VERS = 2.0
CREATION_DATE  = 
ORIGINATOR     = 

OBJECT_NAME    = STARLINK-36093
OBJECT_ID      = 2025-293N
CENTER_NAME    = EARTH
REF_FRAME      = TEME
TIME_SYSTEM    = UTC
MEAN_ELEMENT_THEORY = SGP/SGP4

EPOCH          = 2025-12-19T18:00:00.998784
MEAN_MOTION    = 15.93728826
ECCENTRICITY   = .0003943
INCLINATION    = 69.9941
RA_OF_ASC_NODE = 303.4082
ARG_OF_PERICENTER = 263.2601
MEAN_ANOMALY   = 346.0346

EPHEMERIS_TYPE = 0
CLASSIFICATION_TYPE = U
NORAD_CAT_ID   = 67015
ELEMENT_SET_NO = 999
REV_AT_EPOCH   = 130
BSTAR          = -.30112E-2
MEAN_MOTION_DOT = -.1093036E-1
MEAN_MOTION_DDOT = .36247E-3

CCSDS_OMM_VERS = 2.0
CREATION_DATE  = 
ORIGINATOR     = 

OBJECT_NAME    = STARLINK-36120
OBJECT_ID      = 2025-293P
CENTER_NAME    = EARTH
REF_FRAME      = TEME
TIME_SYSTEM    = UTC
MEAN_ELEMENT_THEORY = SGP/SGP4

EPOCH          = 2025-12-19T18:00:00.998784
MEAN_MOTION    = 15.93668256
ECCENTRICITY   = .0003904
INCLINATION    = 69.9942
RA_OF_ASC_NODE = 303.4112
ARG_OF_PERICENTER = 263.3673
MEAN_ANOMALY   = 343.5143

EPHEMERIS_TYPE = 0
CLASSIFICATION_TYPE = U
NORAD_CAT_ID   = 67016
ELEMENT_SET_NO = 999
REV_AT_EPOCH   = 130
BSTAR          = -.30103E-2
MEAN_MOTION_DOT = -.1089259E-1
MEAN_MOTION_DDOT = .35994E-3

CCSDS_OMM_VERS = 2.0
CREATION_DATE  = 
ORIGINATOR     = 

OBJECT_NAME    = STARLINK-35498
OBJECT_ID      = 2025-293Q
CENTER_NAME    = EARTH
REF_FRAME      = TEME
TIME_SYSTEM    = UTC
MEAN_ELEMENT_THEORY = SGP/SGP4

EPOCH          = 2025-12-19T18:00:00.998784
MEAN_MOTION    = 15.93787989
ECCENTRICITY   = .0003957
INCLINATION    = 69.9937
RA_OF_ASC_NODE = 303.4055
ARG_OF_PERICENTER = 264.6067
MEAN_ANOMALY   = 346.9310

EPHEMERIS_TYPE = 0
CLASSIFICATION_TYPE = U
NORAD_CAT_ID   = 67017
ELEMENT_SET_NO = 999
REV_AT_EPOCH   = 143
BSTAR          = -.30186E-2
MEAN_MOTION_DOT = -.1099098E-1
MEAN_MOTION_DDOT = .36641E-3

CCSDS_OMM_VERS = 2.0
CREATION_DATE  = 
ORIGINATOR     = 

OBJECT_NAME    = STARLINK-36106
OBJECT_ID      = 2025-293R
CENTER_NAME    = EARTH
REF_FRAME      = TEME
TIME_SYSTEM    = UTC
MEAN_ELEMENT_THEORY = SGP/SGP4

EPOCH          = 2025-12-19T18:00:00.998784
MEAN_MOTION    = 15.93851853
ECCENTRICITY   = .0003981
INCLINATION    = 69.9937
RA_OF_ASC_NODE = 303.4025
ARG_OF_PERICENTER = 265.7370
MEAN_ANOMALY   = 348.0616

EPHEMERIS_TYPE = 0
CLASSIFICATION_TYPE = U
NORAD_CAT_ID   = 67018
ELEMENT_SET_NO = 999
REV_AT_EPOCH   = 135
BSTAR          = -.30399E-2
MEAN_MOTION_DOT = -.1110491E-1
MEAN_MOTION_DDOT = .3737E-3

CCSDS_OMM_VERS = 2.0
CREATION_DATE  = 
ORIGINATOR     = 

OBJECT_NAME    = STARLINK-35688
OBJECT_ID      = 2025-293S
CENTER_NAME    = EARTH
REF_FRAME      = TEME
TIME_SYSTEM    = UTC
MEAN_ELEMENT_THEORY = SGP/SGP4

EPOCH          = 2025-12-19T18:00:00.998784
MEAN_MOTION    = 15.93896080
ECCENTRICITY   = .0003858
INCLINATION    = 69.9936
RA_OF_ASC_NODE = 303.3999
ARG_OF_PERICENTER = 263.0397
MEAN_ANOMALY   = 352.8722

EPHEMERIS_TYPE = 0
CLASSIFICATION_TYPE = U
NORAD_CAT_ID   = 67019
ELEMENT_SET_NO = 999
REV_AT_EPOCH   = 143
BSTAR          = -.30054E-2
MEAN_MOTION_DOT = -.1100516E-1
MEAN_MOTION_DDOT = .36769E-3

CCSDS_OMM_VERS = 2.0
CREATION_DATE  = 
ORIGINATOR     = 

OBJECT_NAME    = STARLINK-36172
OBJECT_ID      = 2025-293T
CENTER_NAME    = EARTH
REF_FRAME      = TEME
TIME_SYSTEM    = UTC
MEAN_ELEMENT_THEORY = SGP/SGP4

EPOCH          = 2025-12-19T18:00:00.998784
MEAN_MOTION    = 15.93972262
ECCENTRICITY   = .0003925
INCLINATION    = 69.9935
RA_OF_ASC_NODE = 303.3969
ARG_OF_PERICENTER = 266.5867
MEAN_ANOMALY   = 352.0131

EPHEMERIS_TYPE = 0
CLASSIFICATION_TYPE = U
NORAD_CAT_ID   = 67020
ELEMENT_SET_NO = 999
REV_AT_EPOCH   = 135
BSTAR          = -.30381E-2
MEAN_MOTION_DOT = -.1116838E-1
MEAN_MOTION_DDOT = .37812E-3

CCSDS_OMM_VERS = 2.0
CREATION_DATE  = 
ORIGINATOR     = 

OBJECT_NAME    = STARLINK-36184
OBJECT_ID      = 2025-293U
CENTER_NAME    = EARTH
REF_FRAME      = TEME
TIME_SYSTEM    = UTC
MEAN_ELEMENT_THEORY = SGP/SGP4

EPOCH          = 2025-12-19T18:00:00.998784
MEAN_MOTION    = 15.94037607
ECCENTRICITY   = .0003947
INCLINATION    = 69.9937
RA_OF_ASC_NODE = 303.3936
ARG_OF_PERICENTER = 263.3451
MEAN_ANOMALY   = 357.7041

EPHEMERIS_TYPE = 0
CLASSIFICATION_TYPE = U
NORAD_CAT_ID   = 67021
ELEMENT_SET_NO = 999
REV_AT_EPOCH   = 135
BSTAR          = -.30623E-2
MEAN_MOTION_DOT = -.1129533E-1
MEAN_MOTION_DDOT = .38634E-3

CCSDS_OMM_VERS = 2.0
CREATION_DATE  = 
ORIGINATOR     = 

OBJECT_NAME    = STARLINK-36209
OBJECT_ID      = 2025-293V
CENTER_NAME    = EARTH
REF_FRAME      = TEME
TIME_SYSTEM    = UTC
MEAN_ELEMENT_THEORY = SGP/SGP4

EPOCH          = 2025-12-19T18:00:00.998784
MEAN_MOTION    = 15.94120157
ECCENTRICITY   = .0003915
INCLINATION    = 69.9935
RA_OF_ASC_NODE = 303.3904
ARG_OF_PERICENTER = 264.6044
MEAN_ANOMALY   = 359.3235

EPHEMERIS_TYPE = 0
CLASSIFICATION_TYPE = U
NORAD_CAT_ID   = 67022
ELEMENT_SET_NO = 999
REV_AT_EPOCH   = 135
BSTAR          = -.31332E-2
MEAN_MOTION_DOT = -.1160433E-1
MEAN_MOTION_DDOT = .40641E-3

CCSDS_OMM_VERS = 2.0
CREATION_DATE  = 
ORIGINATOR     = 

OBJECT_NAME    = STARLINK-36191
OBJECT_ID      = 2025-293W
CENTER_NAME    = EARTH
REF_FRAME      = TEME
TIME_SYSTEM    = UTC
MEAN_ELEMENT_THEORY = SGP/SGP4

EPOCH          = 2025-12-19T18:00:00.998784
MEAN_MOTION    = 15.94188028
ECCENTRICITY   = .0003979
INCLINATION    = 69.9935
RA_OF_ASC_NODE = 303.3871
ARG_OF_PERICENTER = 266.2103
MEAN_ANOMALY   = 0.0646

EPHEMERIS_TYPE = 0
CLASSIFICATION_TYPE = U
NORAD_CAT_ID   = 67023
ELEMENT_SET_NO = 999
REV_AT_EPOCH   = 130
BSTAR          = -.31915E-2
MEAN_MOTION_DOT = -.1186063E-1
MEAN_MOTION_DDOT = .42342E-3

CCSDS_OMM_VERS = 2.0
CREATION_DATE  = 
ORIGINATOR     = 

OBJECT_NAME    = STARLINK-36192
OBJECT_ID      = 2025-293X
CENTER_NAME    = EARTH
REF_FRAME      = TEME
TIME_SYSTEM    = UTC
MEAN_ELEMENT_THEORY = SGP/SGP4

EPOCH          = 2025-12-19T14:00:03.000384
MEAN_MOTION    = 15.94686034
ECCENTRICITY   = .00039996
INCLINATION    = 69.9936
RA_OF_ASC_NODE = 303.8699
ARG_OF_PERICENTER = 270.1030
MEAN_ANOMALY   = 122.5851

EPHEMERIS_TYPE = 0
CLASSIFICATION_TYPE = U
NORAD_CAT_ID   = 67024
ELEMENT_SET_NO = 999
REV_AT_EPOCH   = 133
BSTAR          = -.32994294E-2
MEAN_MOTION_DOT = -.1258271E-1
MEAN_MOTION_DDOT = .47460986E-3

CCSDS_OMM_VERS = 2.0
CREATION_DATE  = 
ORIGINATOR     = 

OBJECT_NAME    = STARLINK-36178
OBJECT_ID      = 2025-293Y
CENTER_NAME    = EARTH
REF_FRAME      = TEME
TIME_SYSTEM    = UTC
MEAN_ELEMENT_THEORY = SGP/SGP4

EPOCH          = 2025-12-19T18:00:00.998784
MEAN_MOTION    = 15.94321514
ECCENTRICITY   = .0003991
INCLINATION    = 69.9936
RA_OF_ASC_NODE = 303.3815
ARG_OF_PERICENTER = 264.5286
MEAN_ANOMALY   = 6.5748

EPHEMERIS_TYPE = 0
CLASSIFICATION_TYPE = U
NORAD_CAT_ID   = 67025
ELEMENT_SET_NO = 999
REV_AT_EPOCH   = 135
BSTAR          = -.33203E-2
MEAN_MOTION_DOT = -.1242105E-1
MEAN_MOTION_DDOT = .46169E-3

CCSDS_OMM_VERS = 2.0
CREATION_DATE  = 
ORIGINATOR     = 

OBJECT_NAME    = STARLINK-36176
OBJECT_ID      = 2025-293Z
CENTER_NAME    = EARTH
REF_FRAME      = TEME
TIME_SYSTEM    = UTC
MEAN_ELEMENT_THEORY = SGP/SGP4

EPOCH          = 2025-12-19T18:00:00.998784
MEAN_MOTION    = 15.94443465
ECCENTRICITY   = .0004005
INCLINATION    = 69.9932
RA_OF_ASC_NODE = 303.3759
ARG_OF_PERICENTER = 265.4801
MEAN_ANOMALY   = 10.4062

EPHEMERIS_TYPE = 0
CLASSIFICATION_TYPE = U
NORAD_CAT_ID   = 67026
ELEMENT_SET_NO = 999
REV_AT_EPOCH   = 135
BSTAR          = -.34117E-2
MEAN_MOTION_DOT = -.1284152E-1
MEAN_MOTION_DDOT = .49155E-3

